NORAD_CAT_ID,OBJECT_NAME,OBJECT_TYPE,EPOCH,MEAN_MOTION,ECCENTRICITY,INCLINATION,RA_OF_ASC_NODE,ARG_OF_PERICENTER,MEAN_ANOMALY,BSTAR,MEAN_MOTION_DOT,MEAN_MOTION_DDOT,TLE_LINE0,TLE_LINE1,TLE_LINE2,SEMIMAJOR_AXIS,PERIOD,APOGEE,PERIGEE,DECAYED
52105.0,STARLINK-3706,PAYLOAD,2024-07-24 07:38:54,15.08838836,0.0001445,53.215,222.8683,88.2156,271.9001,3.9483e-06,-2.25e-06,0.0,0 STARLINK-3706,1 52105U 22029T   24206.31868396 -.00000225  00000-0  39483-5 0  9998,2 52105  53.2150 222.8683 0001445  88.2156 271.9001 15.08838836131203,6917.884,95.438,540.749,538.749,0.0
52105.0,STARLINK-3706,PAYLOAD,2024-07-25 05:54:17,15.08843776,0.0001412,53.2148,218.7046,87.8423,272.2731,6.0869e-05,6.81e-06,0.0,0 STARLINK-3706,1 52105U 22029T   24207.24603806  .00000681  00000-0  60869-4 0  9990,2 52105  53.2148 218.7046 0001412  87.8423 272.2731 15.08843776131341,6917.869,95.437,540.711,538.757,0.0
52105.0,STARLINK-3706,PAYLOAD,2024-07-25 10:40:26,15.08844689,0.00014,53.2146,217.8123,87.382,272.7333,6.5681e-05,7.58e-06,0.0,0 STARLINK-3706,1 52105U 22029T   24207.44475687  .00000758  00000-0  65681-4 0  9998,2 52105  53.2146 217.8123 0001400  87.3820 272.7333 15.08844689131378,6917.866,95.437,540.7,538.763,0.0
52105.0,STARLINK-3706,PAYLOAD,2024-07-26 10:31:13,15.08852482,0.0001451,53.215,213.351,81.9345,278.1812,0.00014201,1.974e-05,0.0,0 STARLINK-3706,1 52105U 22029T   24208.43834491  .00001974  00000-0  14201-3 0  9992,2 52105  53.2150 213.3510 0001451  81.9345 278.1812 15.08852482131521,6917.842,95.437,540.711,538.703,0.0
52105.0,STARLINK-3706,PAYLOAD,2024-07-26 16:52:46,15.08843952,0.0001478,53.2149,212.1572,76.4635,283.6522,5.9816e-05,6.64e-06,0.0,0 STARLINK-3706,1 52105U 22029T   24208.70331169  .00000664  00000-0  59816-4 0  9993,2 52105  53.2149 212.1572 0001478  76.4635 283.6522 15.08843952131569,6917.868,95.437,540.756,538.711,0.0
52105.0,STARLINK-3706,PAYLOAD,2024-07-27 05:35:52,15.08832461,0.0001428,53.2149,209.7846,101.736,258.3793,-8.5426e-05,-1.647e-05,0.0,0 STARLINK-3706,1 52105U 22029T   24209.23324429 -.00001647  00000-0 -85426-4 0  9993,2 52105  53.2149 209.7846 0001428 101.7360 258.3793 15.08832461131648,6917.903,95.438,540.756,538.781,0.0
52105.0,STARLINK-3706,PAYLOAD,2024-07-27 10:22:02,15.0882935,0.0001529,53.2157,208.8912,91.6239,268.4929,-8.7679e-05,-1.683e-05,0.0,0 STARLINK-3706,1 52105U 22029T   24209.43196781 -.00001683  00000-0 -87679-4 0  9995,2 52105  53.2157 208.8912 0001529  91.6239 268.4929 15.08829350131674,6917.913,95.438,540.836,538.72,0.0
52105.0,STARLINK-3706,PAYLOAD,2024-07-28 07:02:02,15.08836658,0.0001653,53.2157,205.0269,118.0208,242.0951,-0.00014018,-2.518e-05,0.0,0 STARLINK-3706,1 52105U 22029T   24210.29308694 -.00002518  00000-0 -14018-3 0  9993,2 52105  53.2157 205.0269 0001653 118.0208 242.0951 15.08836658131803,6917.891,95.438,540.899,538.612,0.0
52105.0,STARLINK-3706,PAYLOAD,2024-07-29 06:52:49,15.08834626,0.0001222,53.2152,200.5649,95.2523,264.8608,0.00013013,1.783e-05,0.0,0 STARLINK-3706,1 52105U 22029T   24211.28668593  .00001783  00000-0  13013-3 0  9995,2 52105  53.2152 200.5649 0001222  95.2523 264.8608 15.08834626131958,6917.897,95.438,540.607,538.916,0.0
52105.0,STARLINK-3706,PAYLOAD,2024-07-29 16:25:08,15.0883688,0.0001226,53.2154,198.7806,90.9557,269.1575,0.00013307,1.83e-05,0.0,0 STARLINK-3706,1 52105U 22029T   24211.68412647  .00001830  00000-0  13307-3 0  9995,2 52105  53.2154 198.7806 0001226  90.9557 269.1575 15.08836880132019,6917.89,95.438,540.603,538.907,0.0
52105.0,STARLINK-3706,PAYLOAD,2024-07-29 22:46:41,15.08837017,0.0001216,53.2154,197.5912,90.9666,269.1466,0.00013204,1.814e-05,0.0,0 STARLINK-3706,1 52105U 22029T   24211.94908743  .00001814  00000-0  13204-3 0  9999,2 52105  53.2154 197.5912 0001216  90.9666 269.1466 15.08837017132050,6917.89,95.438,540.596,538.913,0.0
52105.0,STARLINK-3706,PAYLOAD,2024-07-30 06:43:36,15.08842891,0.0001278,53.2156,196.1045,90.3434,269.7705,0.00015497,2.18e-05,0.0,0 STARLINK-3706,1 52105U 22029T   24212.28028400  .00002180  00000-0  15497-3 0  9993,2 52105  53.2156 196.1045 0001278  90.3434 269.7705 15.08842891132103,6917.872,95.437,540.621,538.852,0.0
52105.0,STARLINK-3706,PAYLOAD,2024-07-30 16:15:55,15.0883835,0.0001158,53.2142,194.3194,92.0488,268.0637,5.2875e-05,5.54e-06,0.0,0 STARLINK-3706,1 52105U 22029T   24212.67772934  .00000554  00000-0  52875-4 0  9999,2 52105  53.2142 194.3194 0001158  92.0488 268.0637 15.08838350132165,6917.885,95.438,540.552,538.949,0.0
52105.0,STARLINK-3706,PAYLOAD,2024-07-31 04:59:01,15.08839197,0.0001359,53.2162,191.9411,87.4328,272.682,1.6289e-05,-2.9e-07,0.0,0 STARLINK-3706,1 52105U 22029T   24213.20765204 -.00000029  00000-0  16289-4 0  9998,2 52105  53.2162 191.9411 0001359  87.4328 272.6820 15.08839197132240,6917.883,95.438,540.688,538.808,0.0
52105.0,STARLINK-3706,PAYLOAD,2024-07-31 16:06:42,15.08840691,0.0001389,53.2166,189.8592,88.2803,271.8348,3.5843e-05,2.83e-06,0.0,0 STARLINK-3706,1 52105U 22029T   24213.67133029  .00000283  00000-0  35843-4 0  9991,2 52105  53.2166 189.8592 0001389  88.2803 271.8348 15.08840691132315,6917.878,95.438,540.704,538.782,0.0
52105.0,STARLINK-3706,PAYLOAD,2024-08-01 04:49:47,15.0885075,0.0001423,53.2161,187.4781,97.7665,262.3489,3.69e-05,3e-06,0.0,0 STARLINK-3706,1 52105U 22029T   24214.20124322  .00000300  00000-0  36900-4 0  9992,2 52105  53.2161 187.4781 0001423  97.7665 262.3489 15.08850750132390,6917.848,95.437,540.697,538.728,0.0
52105.0,STARLINK-3706,PAYLOAD,2024-08-01 22:19:02,15.08832013,0.0001435,53.2156,184.2077,97.246,262.8695,0.00017381,2.479e-05,0.0,0 STARLINK-3706,1 52105U 22029T   24214.92989009  .00002479  00000-0  17381-3 0  9992,2 52105  53.2156 184.2077 0001435  97.2460 262.8695 15.08832013132507,6917.905,95.438,540.763,538.777,0.0
52105.0,STARLINK-3706,PAYLOAD,2024-08-02 04:40:34,15.08846811,0.0001278,53.2157,183.0179,96.4681,263.6456,0.00012924,1.77e-05,0.0,0 STARLINK-3706,1 52105U 22029T   24215.19484230  .00001770  00000-0  12924-3 0  9999,2 52105  53.2157 183.0179 0001278  96.4681 263.6456 15.08846811132548,6917.86,95.437,540.609,538.84,0.0
52105.0,STARLINK-3706,PAYLOAD,2024-08-02 22:09:49,15.08836533,0.0001368,53.2159,179.7501,97.7919,262.3228,-1.0184e-05,-4.5e-06,0.0,0 STARLINK-3706,1 52105U 22029T   24215.92349405 -.00000450  00000-0 -10184-4 0  9997,2 52105  53.2159 179.7501 0001368  97.7919 262.3228 15.08836533132654,6917.891,95.438,540.702,538.81,0.0
52105.0,STARLINK-3706,PAYLOAD,2024-08-03 04:31:22,15.08840697,0.0001309,53.2155,178.5602,101.0511,259.0628,6.9382e-06,-1.77e-06,0.0,0 STARLINK-3706,1 52105U 22029T   24216.18845083 -.00000177  00000-0  69382-5 0  9999,2 52105  53.2155 178.5602 0001309 101.0511 259.0628 15.08840697132698,6917.878,95.438,540.649,538.838,0.0
52105.0,STARLINK-3706,PAYLOAD,2024-08-03 14:03:41,15.08837723,0.0001194,53.2147,176.7743,98.1323,261.9804,1.0778e-05,-1.16e-06,0.0,0 STARLINK-3706,1 52105U 22029T   24216.58589257 -.00000116  00000-0  10778-4 0  9998,2 52105  53.2147 176.7743 0001194  98.1323 261.9804 15.08837723132755,6917.887,95.438,540.578,538.926,0.0
52105.0,STARLINK-3706,PAYLOAD,2024-08-04 04:22:09,15.0883682,0.0001223,53.2167,174.1018,102.1994,257.9135,-1.4044e-05,-5.11e-06,0.0,0 STARLINK-3706,1 52105U 22029T   24217.18205638 -.00000511  00000-0 -14044-4 0  9993,2 52105  53.2167 174.1018 0001223 102.1994 257.9135 15.08836820132846,6917.89,95.438,540.601,538.909,0.0
52105.0,STARLINK-3706,PAYLOAD,2024-08-04 13:54:28,15.0884372,0.0001304,53.217,172.3173,102.4204,257.6934,2.6753e-06,-2.45e-06,0.0,0 STARLINK-3706,1 52105U 22029T   24217.57949188 -.00000245  00000-0  26753-5 0  9995,2 52105  53.2170 172.3173 0001304 102.4204 257.6934 15.08843720132907,6917.869,95.437,540.636,538.832,0.0
52105.0,STARLINK-3706,PAYLOAD,2024-08-05 04:12:55,15.08852514,0.0001336,53.2165,169.6406,103.7162,256.3979,0.00020897,3.041e-05,0.0,0 STARLINK-3706,1 52105U 22029T   24218.17564431  .00003041  00000-0  20897-3 0  9993,2 52105  53.2165 169.6406 0001336 103.7162 256.3979 15.08852514132996,6917.842,95.437,540.631,538.783,0.0
52105.0,STARLINK-3706,PAYLOAD,2024-08-05 13:45:15,15.08845764,0.0001406,53.2164,167.8544,78.4377,281.6773,9.9627e-05,1.298e-05,0.0,0 STARLINK-3706,1 52105U 22029T   24218.57309104  .00001298  00000-0  99627-4 0  9991,2 52105  53.2164 167.8544 0001406  78.4377 281.6773 15.08845764133052,6917.863,95.437,540.7,538.755,0.0
52105.0,STARLINK-3706,PAYLOAD,2024-08-06 04:03:45,15.08816515,0.0001367,53.2158,165.1783,77.1295,282.985,-0.00027499,-4.659e-05,0.0,0 STARLINK-3706,1 52105U 22029T   24219.16927214 -.00004659  00000-0 -27499-3 0  9998,2 52105  53.2158 165.1783 0001367  77.1295 282.9850 15.08816515133144,6917.952,95.439,540.763,538.871,0.0
52105.0,STARLINK-3706,PAYLOAD,2024-08-06 13:36:03,15.08831755,0.0001339,53.2166,163.3962,84.505,275.6095,7.092e-06,-1.75e-06,0.0,0 STARLINK-3706,1 52105U 22029T   24219.56670825 -.00000175  00000-0  70920-5 0  9992,2 52105  53.2166 163.3962 0001339  84.5050 275.6095 15.08831755133202,6917.906,95.438,540.697,538.844,0.0
52105.0,STARLINK-3706,PAYLOAD,2024-08-06 19:57:36,15.08834193,0.0001319,53.216,162.2078,84.8539,275.2603,5.3852e-05,5.69e-06,0.0,0 STARLINK-3706,1 52105U 22029T   24219.83166929  .00000569  00000-0  53852-4 0  9997,2 52105  53.2160 162.2078 0001319  84.8539 275.2603 15.08834193133249,6917.898,95.438,540.676,538.851,0.0
52105.0,STARLINK-3706,PAYLOAD,2024-08-07 02:19:08,15.08855773,0.0001278,53.215,161.0169,82.578,277.5358,0.00082197,0.00012823,0.0,0 STARLINK-3706,1 52105U 22029T   24220.09662368  .00012823  00000-0  82197-3 0  9994,2 52105  53.2150 161.0169 0001278  82.5780 277.5358 15.08855773133286,6917.832,95.437,540.581,538.813,0.0
52105.0,STARLINK-3706,PAYLOAD,2024-08-08 02:09:54,15.08869809,0.0002324,53.2149,156.5522,144.8633,215.2513,0.0016712,0.00026432,0.0,0 STARLINK-3706,1 52105U 22029T   24221.09021416  .00026432  00000-0  16712-2 0  9998,2 52105  53.2149 156.5522 0002324 144.8633 215.2513 15.08869809133432,6917.789,95.436,541.262,538.047,0.0
